SatCatId,ObjectName,LaunchYear,OrbitalPeriod,LaunchMass,StatusCode,Inclination,Status,UcsData,OrbitClassEstimated,LaunchSiteCountry,Owner,UseType,Purpose,LaunchVehicleClass,TLE1,TLE2,MeanMotion,Eccentricity,OrbitClass
58725,STARLINK-30856,2024,95.69,-1.0,+,53.16,Active,0,LEO,USA,USA,Unknown,Unknown,Unknown,1 58725U 24002W   24268.34631186  .00000791  00000+0  74587-4 0  9990,2 58725  53.1604 131.1495 0001328  87.5485 272.5657 15.04926623 41189,15.04926623,0.0001328,LEO
58728,STARLINK-31155,2024,95.84,-1.0,+,43.0,Active,0,LEO,USA,USA,Unknown,Unknown,Unknown,1 58728U 24005A   24268.25222944  .00000563  00000+0  56707-4 0  9995,2 58728  43.0027 228.9693 0001025 264.7624  95.3101 15.02538428 40490,15.02538428,0.0001025,LEO
58729,STARLINK-31115,2024,95.84,-1.0,+,43.0,Active,0,LEO,USA,USA,Unknown,Unknown,Unknown,1 58729U 24005B   24268.18242330  .00000794  00000+0  73866-4 0  9990,2 58729  43.0030 229.2915 0000912 266.3457  93.7281 15.02536271 40486,15.02536271,9.12e-05,LEO
58730,STARLINK-31150,2024,93.47,-1.0,P,43.0,Active,0,LEO,USA,USA,Unknown,Unknown,Unknown,1 58730U 24005C   24267.97885838  .00000877  00000+0  28260-4 0  9994,2 58730  43.0042 134.6720 0001592 275.4522  84.6152 15.40702756 41553,15.40702756,0.0001592,LEO
58731,STARLINK-31204,2024,95.84,-1.0,+,43.0,Active,0,LEO,USA,USA,Unknown,Unknown,Unknown,1 58731U 24005D   24268.26036430  .00006714  00000+0  51167-3 0  9991,2 58731  43.0048 230.7284 0001402 266.3636  93.7046 15.02530654 40464,15.02530654,0.0001402,LEO
58732,STARLINK-31180,2024,95.84,-1.0,+,43.0,Active,0,LEO,USA,USA,Unknown,Unknown,Unknown,1 58732U 24005E   24268.27553614  .00000913  00000+0  82676-4 0  9996,2 58732  43.0039 229.1382 0001250 272.4318  87.6381 15.02537601 40498,15.02537601,0.000125,LEO
58733,STARLINK-31164,2024,95.84,-1.0,+,43.0,Active,0,LEO,USA,USA,Unknown,Unknown,Unknown,1 58733U 24005F   24268.24569056  .00006589  00000+0  50236-3 0  9992,2 58733  43.0039 229.7663 0001233 255.4702 104.6003 15.02534541 40486,15.02534541,0.0001233,LEO
58734,STARLINK-31152,2024,95.84,-1.0,+,43.0,Active,0,LEO,USA,USA,Unknown,Unknown,Unknown,1 58734U 24005G   24268.17587516  .00004231  00000+0  32797-3 0  9990,2 58734  43.0033 230.1020 0001333 264.1322  95.9369 15.02547482 40463,15.02547482,0.0001333,LEO
58735,STARLINK-31157,2024,95.84,-1.0,+,43.0,Active,0,LEO,USA,USA,Unknown,Unknown,Unknown,1 58735U 24005H   24268.30550051  .00005383  00000+0  41310-3 0  9990,2 58735  43.0023 229.3562 0000702 243.3961 116.6809 15.02549114 40487,15.02549114,7.02e-05,LEO
58736,STARLINK-31076,2024,95.84,-1.0,+,43.0,Active,0,LEO,USA,USA,Unknown,Unknown,Unknown,1 58736U 24005J   24268.23569763  .00000839  00000+0  77162-4 0  9999,2 58736  43.0012 229.6910 0001008 263.6858  96.3870 15.02538432 40535,15.02538432,0.0001008,LEO
58737,STARLINK-31101,2024,95.84,-1.0,+,43.0,Active,0,LEO,USA,USA,Unknown,Unknown,Unknown,1 58737U 24005K   24268.29550959  .00000864  00000+0  79035-4 0  9992,2 58737  43.0055 229.2757 0001510 274.7917  85.2752 15.02541239 40495,15.02541239,0.000151,LEO
58738,STARLINK-31108,2024,95.84,-1.0,+,43.0,Active,0,LEO,USA,USA,Unknown,Unknown,Unknown,1 58738U 24005L   24268.36531401 -.00002885  00000+0 -19863-3 0  9991,2 58738  43.0029 228.9420 0001179 253.4938 106.5775 15.02533918 40518,15.02533918,0.0001179,LEO
58739,STARLINK-31042,2024,95.84,-1.0,+,43.0,Active,0,LEO,USA,USA,Unknown,Unknown,Unknown,1 58739U 24005M   24268.22569970  .00000575  00000+0  57598-4 0  9999,2 58739  43.0048 229.6125 0001223 279.1730  80.8974 15.02549767 40474,15.02549767,0.0001223,LEO
58740,STARLINK-31159,2024,95.84,-1.0,+,43.0,Active,0,LEO,USA,USA,Unknown,Unknown,Unknown,1 58740U 24005N   24267.62407822  .00001394  00000+0  11822-3 0  9990,2 58740  43.0026 232.8403 0000845 274.6525  85.4221 15.02538101 40474,15.02538101,8.45e-05,LEO
58741,STARLINK-31148,2024,95.84,-1.0,+,43.0,Active,0,LEO,USA,USA,Unknown,Unknown,Unknown,1 58741U 24005P   24268.35199909  .00001615  00000+0  13457-3 0  9998,2 58741  43.0037 228.8566 0000724 268.9951  91.0808 15.02546514 40490,15.02546514,7.24e-05,LEO
58742,STARLINK-31151,2024,95.84,-1.0,+,43.0,Active,0,LEO,USA,USA,Unknown,Unknown,Unknown,1 58742U 24005Q   24268.28219727  .00001370  00000+0  11650-3 0  9993,2 58742  43.0051 229.1946 0001217 270.2921  89.7782 15.02538525 40582,15.02538525,0.0001217,LEO
58743,STARLINK-31156,2024,95.84,-1.0,+,43.0,Active,0,LEO,USA,USA,Unknown,Unknown,Unknown,1 58743U 24005R   24268.27886313  .00000807  00000+0  74768-4 0  9998,2 58743  43.0023 229.1707 0001121 272.0874  87.9840 15.02547687 40537,15.02547687,0.0001121,LEO
58744,STARLINK-31167,2024,94.37,-1.0,+,43.0,Active,0,LEO,USA,USA,Unknown,Unknown,Unknown,1 58744U 24005S   24268.49964835  .00000743  00000+0  38274-4 0  9990,2 58744  43.0077 189.1291 0002041 264.3874  95.6744 15.25907900 41023,15.259079,0.0002041,LEO
58745,STARLINK-31176,2024,95.84,-1.0,+,43.0,Active,0,LEO,USA,USA,Unknown,Unknown,Unknown,1 58745U 24005T   24268.27219981  .00002303  00000+0  18544-3 0  9993,2 58745  43.0044 229.1176 0000972 278.1954  81.8778 15.02550339 40486,15.02550339,9.72e-05,LEO
58746,STARLINK-31181,2024,94.37,-1.0,+,43.0,Active,0,LEO,USA,USA,Unknown,Unknown,Unknown,1 58746U 24005U   24268.47703296 -.00000754  00000+0 -18997-4 0  9996,2 58746  43.0029 188.9373 0001014 276.0738  83.9997 15.25907758 41029,15.25907758,0.0001014,LEO
58747,STARLINK-31183,2024,95.84,-1.0,+,43.0,Active,0,LEO,USA,USA,Unknown,Unknown,Unknown,1 58747U 24005V   24268.26554942  .00001313  00000+0  11224-3 0  9991,2 58747  43.0053 229.0673 0001313 275.1890  84.8802 15.02535977 40588,15.02535977,0.0001313,LEO
58748,STARLINK-31165,2024,95.84,-1.0,+,43.0,Active,0,LEO,USA,USA,Unknown,Unknown,Unknown,1 58748U 24005W   24268.26888849  .00008976  00000+0  67857-3 0  9993,2 58748  43.0038 229.0922 0001290 270.5008  89.5687 15.02543544 40484,15.02543544,0.000129,LEO
58749,STARLINK-31160,2024,95.84,-1.0,+,43.0,Active,0,LEO,USA,USA,Unknown,Unknown,Unknown,1 58749U 24005X   24268.19240116  .00001629  00000+0  13562-3 0  9997,2 58749  43.0056 229.3099 0001278 272.9397  87.1299 15.02540469 40471,15.02540469,0.0001278,LEO
58750,STARLINK-31179,2024,95.84,-1.0,+,43.0,Active,0,LEO,USA,USA,Unknown,Unknown,Unknown,1 58750U 24005Y   24268.19573984  .00001400  00000+0  11871-3 0  9999,2 58750  43.0042 229.4029 0001248 267.2414  92.8285 15.02539009 40472,15.02539009,0.0001248,LEO
58753,EINSTEIN PROBE,2024,96.27,-1.0,+,29.0,Active,0,LEO,PRC,China,Unknown,Unknown,Unknown,1 58753U 24007A   24268.49697950  .00006832  00000+0  58478-3 0  9995,2 58753  28.9995 340.0405 0011315  99.0675 261.1203 14.95816671 38818,14.95816671,0.0011315,LEO
58755,NANOFF B,2023,95.7,-1.0,+,97.61,Active,0,LEO,USA,Germany,Unknown,Unknown,Unknown,1 58755U 23185S   24268.42230384  .00006301  00000+0  45086-3 0  9992,2 58755  97.6079 333.5870 0012933 306.8054  53.1985 15.04717834 38735,15.04717834,0.0012933,LEO
58756,TIANXING-1 02,2024,91.28,-1.0,+,95.09,Active,0,LEO,PRC,China,Unknown,Unknown,Unknown,1 58756U 24008A   24268.00590073  .00166653  00000+0  96896-3 0  9998,2 58756  95.0883 275.3304 0015871 152.2419 207.9704 15.77853520 40529,15.7785352,0.0015871,LEO
58758,YUNYAO-1 18,2024,95.3,-1.0,+,50.0,Active,0,LEO,PRC,China,Unknown,Unknown,Unknown,1 58758U 24009A   24268.53966293  .00023141  00000+0  13743-2 0  9993,2 58758  49.9989 353.4733 0011450 273.2698  86.6941 15.11105587 39098,15.11105587,0.001145,LEO
58759,YUNYAO-1 19,2024,95.3,-1.0,+,49.99,Active,0,LEO,PRC,China,Unknown,Unknown,Unknown,1 58759U 24009B   24268.51843531  .00024044  00000+0  14283-2 0  9994,2 58759  49.9911 353.9011 0012421 279.8756  80.0791 15.11065690 39095,15.1106569,0.0012421,LEO
58760,YUNYAO-1 20,2024,95.3,-1.0,+,49.98,Active,0,LEO,PRC,China,Unknown,Unknown,Unknown,1 58760U 24009C   24268.49572976  .00023238  00000+0  13822-2 0  9997,2 58760  49.9844 352.9414 0011196 289.3253  70.6485 15.11049152 39106,15.11049152,0.0011196,LEO
58765,STARLINK-31127,2024,95.69,-1.0,+,53.16,Active,0,LEO,USA,USA,Unknown,Unknown,Unknown,1 58765U 24011A   24268.42494484  .00001301  00000+0  11021-3 0  9992,2 58765  53.1598 270.1148 0001769  70.0690 290.0490 15.04929633 39549,15.04929633,0.0001769,LEO
58766,STARLINK-31114,2024,95.68,-1.0,+,53.16,Active,0,LEO,USA,USA,Unknown,Unknown,Unknown,1 58766U 24011B   24268.17525546 -.00001537  00000+0 -88010-4 0  9995,2 58766  53.1603 270.6974 0002073 107.8778 252.2438 15.04931616 39517,15.04931616,0.0002073,LEO
58767,STARLINK-31140,2024,95.69,-1.0,+,53.16,Active,0,LEO,USA,USA,Unknown,Unknown,Unknown,1 58767U 24011C   24268.15605818  .00001193  00000+0  10267-3 0  9999,2 58767  53.1594 271.2812 0001499  90.7628 269.3533 15.04931234 39601,15.04931234,0.0001499,LEO
58768,STARLINK-31145,2024,95.69,-1.0,+,53.16,Active,0,LEO,USA,USA,Unknown,Unknown,Unknown,1 58768U 24011D   24268.41850489 -.00000168  00000+0  76066-5 0  9998,2 58768  53.1597 270.0750 0001469  91.9898 268.1260 15.04926327 39546,15.04926327,0.0001469,LEO
58769,STARLINK-31146,2024,95.69,-1.0,+,53.16,Active,0,LEO,USA,USA,Unknown,Unknown,Unknown,1 58769U 24011E   24268.41419121  .00001678  00000+0  13654-3 0  9991,2 58769  53.1596 270.0481 0001387  91.5417 268.5731 15.04934438 39661,15.04934438,0.0001387,LEO
58770,STARLINK-31143,2024,95.69,-1.0,+,53.16,Active,0,LEO,USA,USA,Unknown,Unknown,Unknown,1 58770U 24011F   24267.74685682  .00000747  00000+0  71551-4 0  9992,2 58770  53.1601 272.9950 0001471  88.9205 271.1953 15.04927327 39565,15.04927327,0.0001471,LEO
58771,STARLINK-31135,2024,95.69,-1.0,+,53.16,Active,0,LEO,USA,USA,Unknown,Unknown,Unknown,1 58771U 24011G   24267.74365863  .00011435  00000+0  81678-3 0  9995,2 58771  53.1589 272.9737 0000949 108.9274 251.1819 15.04930282 39565,15.04930282,9.49e-05,LEO
58772,STARLINK-31136,2024,95.69,-1.0,+,53.16,Active,0,LEO,USA,USA,Unknown,Unknown,Unknown,1 58772U 24011H   24267.74041806  .00001224  00000+0  10483-3 0  9995,2 58772  53.1605 272.9551 0001370  88.5717 271.5429 15.04927354 39562,15.04927354,0.000137,LEO
